{
  "type": "FeatureCollection",
  "features": [
    {
      "type": "Feature",
      "properties": {
        "norad_id": 34420,
        "name": "COSMOS 2251 DEB",
        "group": "cosmos-2251-debris",
        "lat": 49.942985856631836,
        "lon": 140.46819178957378,
        "alt_km": 735.7400055015596,
        "timestamp": "2025-12-04T03:47:54.936326+00:00",
        "meta_object_name": "COSMOS 2251 DEB",
        "meta_object_id": "1993-036RM",
        "meta_epoch": "2025-12-03T13:23:23.385120",
        "meta_mean_motion": 14.68252012,
        "meta_eccentricity": 0.0106965,
        "meta_inclination": 74.0319,
        "meta_ra_of_asc_node": 121.7186,
        "meta_arg_of_pericenter": 244.9528,
        "meta_mean_anomaly": 235.6026,
        "meta_ephemeris_type": 0,
        "meta_classification_type": "U",
        "meta_norad_cat_id": 34420,
        "meta_element_set_no": 999,
        "meta_rev_at_epoch": 89635,
        "meta_bstar": 0.00034991,
        "meta_mean_motion_dot": 2.164e-05,
        "meta_mean_motion_ddot": 0,
        "tle_line1": "1 34420U 93036RM  25337.55790955  .00002164  00000+0  34991-3 0  9990",
        "tle_line2": "2 34420  74.0319 121.7186 0106965 244.9528 235.6026 14.68252012896352"
      },
      "geometry": {
        "type": "Point",
        "coordinates": [
          140.46819178957378,
          49.942985856631836
        ]
      }
    },
    {
      "type": "Feature",
      "properties": {
        "norad_id": 34425,
        "name": "COSMOS 2251 DEB",
        "group": "cosmos-2251-debris",
        "lat": -27.73676983110443,
        "lon": 62.29720812420116,
        "alt_km": 704.0515603446738,
        "timestamp": "2025-12-04T03:47:54.936336+00:00",
        "meta_object_name": "COSMOS 2251 DEB",
        "meta_object_id": "1993-036RS",
        "meta_epoch": "2025-12-03T13:09:04.556160",
        "meta_mean_motion": 14.62033992,
        "meta_eccentricity": 0.0025502,
        "meta_inclination": 74.0206,
        "meta_ra_of_asc_node": 72.1322,
        "meta_arg_of_pericenter": 200.5723,
        "meta_mean_anomaly": 159.4419,
        "meta_ephemeris_type": 0,
        "meta_classification_type": "U",
        "meta_norad_cat_id": 34425,
        "meta_element_set_no": 999,
        "meta_rev_at_epoch": 88606,
        "meta_bstar": 0.0010137,
        "meta_mean_motion_dot": 5.083e-05,
        "meta_mean_motion_ddot": 0,
        "tle_line1": "1 34425U 93036RS  25337.54796940  .00005083  00000+0  10137-2 0  9992",
        "tle_line2": "2 34425  74.0206  72.1322 0025502 200.5723 159.4419 14.62033992886069"
      },
      "geometry": {
        "type": "Point",
        "coordinates": [
          62.29720812420116,
          -27.73676983110443
        ]
      }
    },
    {
      "type": "Feature",
      "properties": {
        "norad_id": 34429,
        "name": "COSMOS 2251 DEB",
        "group": "cosmos-2251-debris",
        "lat": 18.172238491144235,
        "lon": 1.1996922157625556,
        "alt_km": 456.6099183621409,
        "timestamp": "2025-12-04T03:47:54.936346+00:00",
        "meta_object_name": "COSMOS 2251 DEB",
        "meta_object_id": "1993-036RW",
        "meta_epoch": "2025-12-03T16:26:43.267200",
        "meta_mean_motion": 15.37003186,
        "meta_eccentricity": 0.0005738,
        "meta_inclination": 73.9726,
        "meta_ra_of_asc_node": 187.6354,
        "meta_arg_of_pericenter": 39.693,
        "meta_mean_anomaly": 24.6907,
        "meta_ephemeris_type": 0,
        "meta_classification_type": "U",
        "meta_norad_cat_id": 34429,
        "meta_element_set_no": 999,
        "meta_rev_at_epoch": 89309,
        "meta_bstar": 0.0057078,
        "meta_mean_motion_dot": 0.0021266,
        "meta_mean_motion_ddot": 0,
        "tle_line1": "1 34429U 93036RW  25337.68522300  .00212660  00000+0  57078-2 0  9994",
        "tle_line2": "2 34429  73.9726 187.6354 0005738  39.6930  24.6907 15.37003186893096"
      },
      "geometry": {
        "type": "Point",
        "coordinates": [
          1.1996922157625556,
          18.172238491144235
        ]
      }
    },
    {
      "type": "Feature",
      "properties": {
        "norad_id": 34430,
        "name": "COSMOS 2251 DEB",
        "group": "cosmos-2251-debris",
        "lat": 73.73223112460651,
        "lon": 37.709673122153944,
        "alt_km": 728.224449860365,
        "timestamp": "2025-12-04T03:47:54.936356+00:00",
        "meta_object_name": "COSMOS 2251 DEB",
        "meta_object_id": "1993-036RX",
        "meta_epoch": "2025-12-03T15:43:35.492160",
        "meta_mean_motion": 14.39584884,
        "meta_eccentricity": 0.0059922,
        "meta_inclination": 74.0511,
        "meta_ra_of_asc_node": 320.1234,
        "meta_arg_of_pericenter": 32.0855,
        "meta_mean_anomaly": 328.3924,
        "meta_ephemeris_type": 0,
        "meta_classification_type": "U",
        "meta_norad_cat_id": 34430,
        "meta_element_set_no": 999,
        "meta_rev_at_epoch": 87824,
        "meta_bstar": 0.00067138,
        "meta_mean_motion_dot": 2.116e-05,
        "meta_mean_motion_ddot": 0,
        "tle_line1": "1 34430U 93036RX  25337.65527190  .00002116  00000+0  67138-3 0  9997",
        "tle_line2": "2 34430  74.0511 320.1234 0059922  32.0855 328.3924 14.39584884878243"
      },
      "geometry": {
        "type": "Point",
        "coordinates": [
          37.709673122153944,
          73.73223112460651
        ]
      }
    },
    {
      "type": "Feature",
      "properties": {
        "norad_id": 34431,
        "name": "COSMOS 2251 DEB",
        "group": "cosmos-2251-debris",
        "lat": -34.86052206707805,
        "lon": 179.25989350972552,
        "alt_km": 842.0785450724097,
        "timestamp": "2025-12-04T03:47:54.936366+00:00",
        "meta_object_name": "COSMOS 2251 DEB",
        "meta_object_id": "1993-036RY",
        "meta_epoch": "2025-12-03T01:04:59.473920",
        "meta_mean_motion": 14.28727352,
        "meta_eccentricity": 0.00687591,
        "meta_inclination": 74.074,
        "meta_ra_of_asc_node": 192.7465,
        "meta_arg_of_pericenter": 181.072,
        "meta_mean_anomaly": 179.0293,
        "meta_ephemeris_type": 0,
        "meta_classification_type": "U",
        "meta_norad_cat_id": 34431,
        "meta_element_set_no": 999,
        "meta_rev_at_epoch": 87004,
        "meta_bstar": 0.00069984948,
        "meta_mean_motion_dot": 1.781e-05,
        "meta_mean_motion_ddot": 0,
        "tle_line1": "1 34431U 93036RY  25337.04513280  .00001781  00000+0  69985-3 0  9995",
        "tle_line2": "2 34431  74.0740 192.7465 0068759 181.0720 179.0293 14.28727352870048"
      },
      "geometry": {
        "type": "Point",
        "coordinates": [
          179.25989350972552,
          -34.86052206707805
        ]
      }
    },
    {
      "type": "Feature",
      "properties": {
        "norad_id": 34432,
        "name": "COSMOS 2251 DEB",
        "group": "cosmos-2251-debris",
        "lat": 44.148772825340664,
        "lon": 133.80415367999748,
        "alt_km": 999.8096134392172,
        "timestamp": "2025-12-04T03:47:54.936376+00:00",
        "meta_object_name": "COSMOS 2251 DEB",
        "meta_object_id": "1993-036RZ",
        "meta_epoch": "2025-12-03T02:28:17.071104",
        "meta_mean_motion": 14.02836729,
        "meta_eccentricity": 0.01831849,
        "meta_inclination": 73.8275,
        "meta_ra_of_asc_node": 119.3014,
        "meta_arg_of_pericenter": 203.436,
        "meta_mean_anomaly": 276.5797,
        "meta_ephemeris_type": 0,
        "meta_classification_type": "U",
        "meta_norad_cat_id": 34432,
        "meta_element_set_no": 999,
        "meta_rev_at_epoch": 85549,
        "meta_bstar": 0.0016054633,
        "meta_mean_motion_dot": 2.856e-05,
        "meta_mean_motion_ddot": 0,
        "tle_line1": "1 34432U 93036RZ  25337.10297536  .00002856  00000+0  16055-2 0  9999",
        "tle_line2": "2 34432  73.8275 119.3014 0183184 203.4360 276.5797 14.02836729855498"
      },
      "geometry": {
        "type": "Point",
        "coordinates": [
          133.80415367999748,
          44.148772825340664
        ]
      }
    },
    {
      "type": "Feature",
      "properties": {
        "norad_id": 34433,
        "name": "COSMOS 2251 DEB",
        "group": "cosmos-2251-debris",
        "lat": 51.85983641663611,
        "lon": -31.279369717913543,
        "alt_km": 953.9040739489456,
        "timestamp": "2025-12-04T03:47:54.936386+00:00",
        "meta_object_name": "COSMOS 2251 DEB",
        "meta_object_id": "1993-036SA",
        "meta_epoch": "2025-12-03T00:00:45.111168",
        "meta_mean_motion": 14.12779901,
        "meta_eccentricity": 0.01517359,
        "meta_inclination": 74.0107,
        "meta_ra_of_asc_node": 172.1866,
        "meta_arg_of_pericenter": 312.4155,
        "meta_mean_anomaly": 46.4228,
        "meta_ephemeris_type": 0,
        "meta_classification_type": "U",
        "meta_norad_cat_id": 34433,
        "meta_element_set_no": 999,
        "meta_rev_at_epoch": 85812,
        "meta_bstar": 0.0017302028,
        "meta_mean_motion_dot": 3.559e-05,
        "meta_mean_motion_ddot": 0,
        "tle_line1": "1 34433U 93036SA  25337.00052212  .00003559  00000+0  17302-2 0  9996",
        "tle_line2": "2 34433  74.0107 172.1866 0151735 312.4155  46.4228 14.12779901858123"
      },
      "geometry": {
        "type": "Point",
        "coordinates": [
          -31.279369717913543,
          51.85983641663611
        ]
      }
    }
  ]
}